1 41174U 15079A   19101.83618073  .00000021  00000-0  00000-0 0  9990
2 41174  54.9380 173.3926 0005351 298.3555  61.6580  1.70473951 20229
1 41174U 15079A   19102.42276186  .00000019  00000-0  00000-0 0  9998
2 41174  54.9380 173.3764 0005385 298.3033  61.7078  1.70473866 20236
1 41174U 15079A   19103.59592447  .00000015  00000-0  00000+0 0  9993
2 41174  54.9382 173.3441 0005415 298.2092  61.7994  1.70473836 20669
1 41174U 15079A   19105.35567987  .00000016  00000-0  00000-0 0  9992
2 41174  54.9384 173.2955 0005427 298.1867  61.8252  1.70473805 20284
1 41174U 15079A   19105.94226411  .00000018  00000-0  00000-0 0  9993
2 41174  54.9385 173.2794 0005464 298.0879  61.9263  1.70473891 20298
1 41174U 15079A   19107.11544384  .00000022  00000-0  00000-0 0  9991
2 41174  54.9386 173.2470 0005508 297.8821  62.1382  1.70473802 20728
1 41174U 15079A   19108.28861705  .00000026  00000-0  00000+0 0  9992
2 41174  54.9387 173.2147 0005569 297.6743  62.3517  1.70473877 20744
1 41174U 15079A   19110.04837216  .00000025  00000-0  00000+0 0  9998
2 41174  54.9389 173.1661 0005603 297.5938  62.4366  1.70473939 20775
1 41174U 15079A   19111.22154103  .00000020  00000-0  00000+0 0  9991
2 41174  54.9390 173.1337 0005634 297.4886  62.5407  1.70473839 20790
1 41174U 15079A   19112.98128026  .00000011  00000-0  00000+0 0  9990
2 41174  54.9391 173.0852 0005693 297.3132  62.7099  1.70473883 20822
1 41174U 15079A   19116.50075956  .00000012  00000-0  00000+0 0  9996
2 41174  54.9395 172.9882 0005796 296.8884  63.1244  1.70474017 20882
1 41174U 15079A   19117.67392889  .00000020  00000-0  00000+0 0  9991
2 41174  54.9397 172.9559 0005851 296.7248  63.2888  1.70473991 20908
1 41174U 15079A   19118.84709967  .00000029  00000-0  00000+0 0  9999
2 41174  54.9398 172.9235 0005869 296.6965  63.3208  1.70474029 20926
1 41174U 15079A   19118.84709967  .00000029  00000-0  00000-0 0  9990
2 41174  54.9398 172.9235 0005869 296.6965  63.3208  1.70474029 20511
1 41174U 15079A   19121.19345140  .00000049  00000-0  00000+0 0  9992
2 41174  54.9400 172.8589 0005907 296.6661  63.3631  1.70474016 20967
1 41174U 15079A   19122.95321574  .00000063  00000-0  00000+0 0  9998
2 41174  54.9403 172.8104 0005956 296.6110  63.4266  1.70473921 20998
1 41174U 15079A   19122.95321574  .00000063  00000-0  00000-0 0  9999
2 41174  54.9403 172.8104 0005956 296.6110  63.4266  1.70473921 20583
1 41174U 15079A   19128.23244570  .00000068  00000-0  00000+0 0  9990
2 41174  54.9408 172.6649 0006088 296.6471  63.3785  1.70473787 21088
1 41174U 15079A   19131.16533971  .00000056  00000-0  00000+0 0  9999
2 41174  54.9414 172.5841 0006138 296.7806  63.2303  1.70473715 21139
1 41174U 15079A   19133.51167763  .00000060  00000-0  00000+0 0  9997
2 41174  54.9419 172.5194 0006184 296.7649  63.2480  1.70473698 21171
1 41174U 15079A   19135.27143768  .00000066  00000-0  00000-0 0  9998
2 41174  54.9398 172.4709 0006244 296.6748  63.3436  1.70473711 20801
1 41174U 15079A   19135.27143848  .00000066  00000-0  00000+0 0  9996
2 41174  54.9397 172.4709 0006230 296.6890  63.3295  1.70473696 21203
1 41174U 15079A   19139.96409162  .00000051  00000-0  00000+0 0  9994
2 41174  54.9407 172.3416 0006301 296.6952  63.3131  1.70473781 21289
1 41174U 15079A   19139.96409162  .00000051  00000-0  00000-0 0  9995
2 41174  54.9407 172.3416 0006301 296.6952  63.3131  1.70473781 20873
1 41174U 15079A   19142.31040404  .00000044  00000-0  00000+0 0  9999
2 41174  54.9408 172.2770 0006319 296.6360  63.3588  1.70473819 21327
1 41174U 15079A   19145.82989782  .00000060  00000-0  00000+0 0  9997
2 41174  54.9418 172.1800 0006367 296.5594  63.4299  1.70473851 21384
1 41174U 15079A   19145.82989782  .00000060  00000-0  00000-0 0  9998
2 41174  54.9418 172.1800 0006367 296.5594  63.4299  1.70473851 20978
1 41174U 15079A   19147.58965755  .00000074  00000-0  00000+0 0  9991
2 41174  54.9418 172.1315 0006390 296.6803  63.3140  1.70473838 21418
1 41174U 15079A   19147.58965755  .00000074  00000-0  00000-0 0  9992
2 41174  54.9418 172.1315 0006390 296.6803  63.3140  1.70473838 21003
1 41174U 15079A   19148.17624501  .00000078  00000-0  00000-0 0  9993
2 41174  54.9418 172.1153 0006395 296.7196  63.2770  1.70473826 21010
1 41174U 15079A   19150.52259189  .00000095  00000-0  00000-0 0  9990
2 41174  54.9422 172.0507 0006415 296.8013  63.2022  1.70473751 21050
1 41174U 15079A   19150.52259215  .00000095  00000-0  00000+0 0  9999
2 41174  54.9422 172.0507 0006407 296.7833  63.2202  1.70473760 21465
1 41174U 15079A   19152.28234289  .00000102  00000-0  00000+0 0  9997
2 41174  54.9434 172.0023 0006450 296.9047  63.0977  1.70473661 21498
1 41174U 15079A   19155.21523564  .00000095  00000-0  00000+0 0  9991
2 41174  54.9438 171.9215 0006484 297.1124  62.8729  1.70473571 21547
1 41174U 15079A   19155.80181160  .00000092  00000-0  00000-0 0  9996
2 41174  54.9445 171.9053 0006494 297.2494  62.7311  1.70473554 21140
1 41174U 15079A   19159.90787339  .00000078  00000-0  00000+0 0  9994
2 41174  54.9453 171.7922 0006510 297.5366  62.4256  1.70473458 21623
1 41174U 15079A   19160.49445874  .00000079  00000-0  00000-0 0  9997
2 41174  54.9464 171.7760 0006518 297.5941  62.3687  1.70473458 21225
1 41174U 15079A   19161.08104516  .00000080  00000-0  00000+0 0  9999
2 41174  54.9465 171.7599 0006524 297.6446  62.3194  1.70473452 21647
1 41174U 15079A   19163.42738931  .00000083  00000-0  00000+0 0  9996
2 41174  54.9470 171.6953 0006548 297.8151  62.1528  1.70473473 21683
1 41174U 15079A   19164.01397347  .00000082  00000-0  00000-0 0  9994
2 41174  54.9471 171.6791 0006545 297.8202  62.1473  1.70473478 21288
1 41174U 15079A   19165.18713821  .00000076  00000-0  00000+0 0  9994
2 41174  54.9473 171.6468 0006549 297.9701  61.9944  1.70473476 21716
1 41174U 15079A   19166.36029750  .00000068  00000-0  00000+0 0  9997
2 41174  54.9475 171.6144 0006544 298.0504  61.9081  1.70473492 21739
1 41174U 15079A   19166.94687499  .00000063  00000-0  00000-0 0  9997
2 41174  54.9477 171.5983 0006538 298.0799  61.8748  1.70473537 21335
1 41174U 15079A   19168.70660996  .00000053  00000-0  00000+0 0  9994
2 41174  54.9480 171.5498 0006530 298.1400  61.8025  1.70473533 21774
1 41174U 15079A   19169.87976776  .00000050  00000-0  00000+0 0  9996
2 41174  54.9481 171.5175 0006530 298.1524  61.7833  1.70473562 21794
1 41174U 15079A   19169.87976776  .00000050  00000-0  00000-0 0  9997
2 41174  54.9481 171.5175 0006530 298.1524  61.7833  1.70473562 21389
1 41174U 15079A   19169.87976829  .00000050  00000-0  00000-0 0  9996
2 41174  54.9482 171.5175 0006530 298.1702  61.7655  1.70473554 21381
1 41174U 15079A   19171.63951364  .00000054  00000-0  00000+0 0  9993
2 41174  54.9485 171.4691 0006539 298.2511  61.6789  1.70473571 21829
1 41174U 15079A   19172.22609694  .00000057  00000-0  00000-0 0  9999
2 41174  54.9485 171.4529 0006539 298.3013  61.6283  1.70473587 21429
1 41174U 15079A   19172.81268240  .00000060  00000-0  00000+0 0  9995
2 41174  54.9487 171.4368 0006538 298.3471  61.5828  1.70473587 21849
1 41174U 15079A   19174.57244218  .00000071  00000-0  00000+0 0  9991
2 41174  54.9489 171.3883 0006532 298.5364  61.3976  1.70473599 21877
1 41174U 15079A   19174.57244218  .00000071  00000-0  00000-0 0  9992
2 41174  54.9489 171.3883 0006532 298.5364  61.3976  1.70473599 21462
1 41174U 15079A   19175.74561902  .00000079  00000-0  00000+0 0  9991
2 41174  54.9491 171.3560 0006519 298.7008  61.2375  1.70473566 21892
1 41174U 15079A   19176.33220694  .00000083  00000-0  00000-0 0  9993
2 41174  54.9493 171.3398 0006515 298.7731  61.1672  1.70473555 21495
1 41174U 15079A   19176.91879504  .00000086  00000-0  00000+0 0  9999
2 41174  54.9494 171.3237 0006518 298.7212  61.2207  1.70473521 21910
1 41174U 15079A   19177.50538204  .00000089  00000-0  00000-0 0  9998
2 41174  54.9494 171.3075 0006514 298.7859  61.1575  1.70473507 21510
1 41174U 15079A   19178.09196880  .00000092  00000-0  00000+0 0  9996
2 41174  54.9495 171.2913 0006515 298.7712  61.1728  1.70473469 21933
1 41174U 15079A   19179.85171883  .00000095  00000-0  00000+0 0  9990
2 41174  54.9497 171.2429 0006517 298.9252  61.0169  1.70473448 21968
1 41174U 15079A   19179.85171883  .00000095  00000-0  00000-0 0  9991
2 41174  54.9497 171.2429 0006517 298.9252  61.0169  1.70473448 21553
1 41174U 15079A   19182.19803788  .00000087  00000-0  00000+0 0  9998
2 41174  54.9500 171.1782 0006515 299.2453  60.6836  1.70473349 22001
1 41174U 15079A   19183.37119270  .00000079  00000-0  00000+0 0  9996
2 41174  54.9503 171.1460 0006502 299.4314  60.4888  1.70473336 22024
1 41174U 15079A   19184.54435119  .00000071  00000-0  00000+0 0  9991
2 41174  54.9505 171.1137 0006484 299.6648  60.2477  1.70473284 22044
1 41174U 15079A   19184.54435119  .00000071  00000-0  00000-0 0  9992
2 41174  54.9505 171.1137 0006484 299.6648  60.2477  1.70473284 21638
1 41174U 15079A   19186.30409763  .00000063  00000-0  00000+0 0  9994
2 41174  54.9507 171.0652 0006462 299.9461  59.9604  1.70473224 22073
1 41174U 15079A   19186.30409763  .00000063  00000-0  00000-0 0  9995
2 41174  54.9507 171.0652 0006462 299.9461  59.9604  1.70473224 21667
1 41174U 15079A   19186.89068302  .00000063  00000-0  00000-0 0  9999
2 41174  54.9508 171.0490 0006460 299.9162  59.9901  1.70473213 21673
1 41174U 15079A   19189.23703266  .00000064  00000-0  00000+0 0  9995
2 41174  54.9511 170.9844 0006445 300.1349  59.7768  1.70473221 22122
1 41174U 15079A   19189.82362170  .00000064  00000-0  00000-0 0  9996
2 41174  54.9512 170.9683 0006432 300.3705  59.5430  1.70473206 21720
1 41174U 15079A   19193.34312842  .00000047  00000-0  00000+0 0  9999
2 41174  54.9515 170.8714 0006386 300.8220  59.0881  1.70473246 22193
1 41174U 15079A   19193.92971079  .00000042  00000-0  00000-0 0  9992
2 41174  54.9516 170.8553 0006372 300.9014  59.0057  1.70473209 21791
